{
  "norad_id": 68657,
  "name": "GUOWANG GROUP 21 OBJECT B",
  "history": [
    {
      "epoch": "2026-04-09T21:05:53.443392Z",
      "apogee_km": 957.6388366363944,
      "perigee_km": 947.6850778122744,
      "latitude_deg": -6.867710453875381e-05,
      "longitude_deg": -86.57694095679615,
      "height_km": 959.7448792551097,
      "semi_major_axis_km": 7330.798957224334,
      "eccentricity": 0.0006789,
      "inclination_deg": 86.495,
      "raan_deg": 68.0167,
      "arg_perigee_deg": 214.5705,
      "mean_anomaly_deg": 145.5021,
      "mean_motion_rev_day": 13.83170755
    }
  ]
}