GUOWANG GROUP 21 OBJECT*
1 68657U 26076B   26099.87909078  .00000059  00000+0  38565-4 0  9991
2 68657  86.4950  68.0167 0006789 214.5705 145.5021 13.83170755   152
